EUTELSAT 8 WEST B       
1 40875U 15039B   25279.13618331 -.00000063  00000+0  00000+0 0  9991
2 40875   0.0712  14.6152 0003756 182.8283 218.6492  1.00271559 37101
EUTELSAT 9B             
1 41310U 16005A   25279.06823637  .00000064  00000+0  00000+0 0  9999
2 41310   0.0568  60.0147 0003304 165.8082 182.7361  1.00270720 35564
EUTELSAT 65 WEST A      
1 41382U 16014A   25279.05350295 -.00000274  00000+0  00000+0 0  9996
2 41382   0.0694  34.0692 0002294 165.5734 129.4027  1.00269436 34981
EUTELSAT 117 WEST B     
1 41589U 16038B   25279.04327625 -.00000010  00000+0  00000+0 0  9999
2 41589   0.0251  42.7616 0000031 357.5038 233.2832  1.00272942 34117
EUTELSAT 172B           
1 42741U 17029B   25279.13100249 -.00000004  00000+0  00000+0 0  9995
2 42741   0.0166 177.7428 0000110 297.7320 118.7464  1.00270873 31183
EUTELSAT 7C             
1 44334U 19034B   25279.06780302  .00000051  00000+0  00000+0 0  9990
2 44334   0.0646 184.5377 0003490 353.0320 228.8468  1.00272812  4288
EUTELSAT 5 WEST B       
1 44624U 19067A   25279.13679000 -.00000040  00000+0  00000+0 0  9997
2 44624   0.0661   6.7434 0003260 192.0782 220.4954  1.00271874 21884
EUTELSAT KONNECT        
1 45027U 20005B   25278.99647604  .00000052  00000+0  00000+0 0  9999
2 45027   0.0650  96.4005 0001768  95.5385 188.9228  1.00275330 21778
